TIANMU-1 10             
1 57402U 23101D   26088.20031404  .00009807  00000+0  34691-3 0  9992
2 57402  97.2717 140.9174 0006475  82.8263 277.3714 15.29338647149418
FENGYUN 3F              
1 57490U 23111A   26088.20710444  .00000075  00000+0  55740-4 0  9995
2 57490  98.6888 159.6887 0000892  80.9679 279.1598 14.19923964137512
ARKTIKA-M 2             
1 58584U 23198A   26082.52027795  .00000173  00000+0  00000+0 0  9997
2 58584  63.2220 163.8934 6881218 267.7008  18.8555  2.00606565 16600
TIANMU-1 11             
1 58645U 23205A   26088.14997978  .00007225  00000+0  28246-3 0  9998
2 58645  97.3525 110.9862 0007130 290.9785  69.0690 15.26133314125310
TIANMU-1 12             
1 58646U 23205B   26088.11772829  .00007387  00000+0  28938-3 0  9999
2 58646  97.3513 110.7282 0005355 269.3422  90.7203 15.26067618125298
TIANMU-1 13             
1 58647U 23205C   26088.14797816  .00007455  00000+0  29156-3 0  9995
2 58647  97.3541 111.0056 0005848 244.5905 115.4729 15.26117957125291
TIANMU-1 14             
1 58648U 23205D   26088.13286582  .00007631  00000+0  29853-3 0  9998
2 58648  97.3476 110.2419 0006508 251.0047 109.0486 15.26092937125296
TIANMU-1 19             
1 58660U 23208A   26088.21910596  .00012039  00000+0  41387-3 0  9997
2 58660  97.4400 204.2344 0004179 226.1655 133.9240 15.30235459125094
TIANMU-1 20             
1 58661U 23208B   26088.18829682  .00013756  00000+0  45530-3 0  9990
2 58661  97.4341 204.7569 0006103 241.0196 119.0434 15.31423183125171
TIANMU-1 21             
1 58662U 23208C   26088.22609266  .00015928  00000+0  49358-3 0  9995
2 58662  97.4396 207.1447 0006169 234.6381 125.4285 15.33503208125309
TIANMU-1 22             
1 58663U 23208D   26088.24181157  .00012972  00000+0  45141-3 0  9994
2 58663  97.4396 204.2552 0002450 253.4690 106.6281 15.29825582125108
TIANMU-1 15             
1 58700U 24004A   26088.19604512  .00007730  00000+0  30235-3 0  9994
2 58700  97.4678 274.4129 0005619 269.8789  90.1805 15.26108217123576
TIANMU-1 16             
1 58701U 24004B   26088.17908062  .00008211  00000+0  32065-3 0  9998
2 58701  97.4621 273.7053 0004058 273.4450  86.6324 15.26146013123577
TIANMU-1 17             
1 58702U 24004C   26088.16096534  .00007556  00000+0  29505-3 0  9996
2 58702  97.4652 274.1500 0003269 274.9038  85.1827 15.26179795123569
TIANMU-1 18             
1 58703U 24004D   26088.21242096  .00007595  00000+0  29709-3 0  9998
2 58703  97.4669 274.4159 0002652 273.3160  86.7774 15.26120269123576
INSAT-3DS               
1 58990U 24033A   26088.06011802 -.00000175  00000+0  00000+0 0  9997
2 58990   0.0175 129.1326 0002057 237.4180 283.6305  1.00271576 46263
METEOR-M2 4             
1 59051U 24039A   26088.20435338  .00000040  00000+0  37532-4 0  9997
2 59051  98.6939  48.5415 0007923  47.2965 312.8879 14.22420252107894
