[{"OBJECT_NAME":"TIANMU-1 10","OBJECT_ID":"2023-101D","EPOCH":"2026-03-29T04:48:27.133056","MEAN_MOTION":15.29338647,"ECCENTRICITY":0.0006475,"INCLINATION":97.2717,"RA_OF_ASC_NODE":140.9174,"ARG_OF_PERICENTER":82.8263,"MEAN_ANOMALY":277.3714,"EPHEMERIS_TYPE":0,"CLASSIFICATION_TYPE":"U","NORAD_CAT_ID":57402,"ELEMENT_SET_NO":999,"REV_AT_EPOCH":14941,"BSTAR":0.00034691,"MEAN_MOTION_DOT":9.807e-5,"MEAN_MOTION_DDOT":0},{"OBJECT_NAME":"FENGYUN 3F","OBJECT_ID":"2023-111A","EPOCH":"2026-03-29T04:58:13.823616","MEAN_MOTION":14.19923964,"ECCENTRICITY":8.92e-5,"INCLINATION":98.6888,"RA_OF_ASC_NODE":159.6887,"ARG_OF_PERICENTER":80.9679,"MEAN_ANOMALY":279.1598,"EPHEMERIS_TYPE":0,"CLASSIFICATION_TYPE":"U","NORAD_CAT_ID":57490,"ELEMENT_SET_NO":999,"REV_AT_EPOCH":13751,"BSTAR":5.574e-5,"MEAN_MOTION_DOT":7.5e-7,"MEAN_MOTION_DDOT":0},{"OBJECT_NAME":"ARKTIKA-M 2","OBJECT_ID":"2023-198A","EPOCH":"2026-03-23T12:29:12.014880","MEAN_MOTION":2.00606565,"ECCENTRICITY":0.68812187,"INCLINATION":63.222,"RA_OF_ASC_NODE":163.8934,"ARG_OF_PERICENTER":267.7008,"MEAN_ANOMALY":18.8555,"EPHEMERIS_TYPE":0,"CLASSIFICATION_TYPE":"U","NORAD_CAT_ID":58584,"ELEMENT_SET_NO":999,"REV_AT_EPOCH":1660,"BSTAR":0,"MEAN_MOTION_DOT":1.73e-6,"MEAN_MOTION_DDOT":0},{"OBJECT_NAME":"TIANMU-1 11","OBJECT_ID":"2023-205A","EPOCH":"2026-03-29T03:35:58.252992","MEAN_MOTION":15.26133314,"ECCENTRICITY":0.000713,"INCLINATION":97.3525,"RA_OF_ASC_NODE":110.9862,"ARG_OF_PERICENTER":290.9785,"MEAN_ANOMALY":69.069,"EPHEMERIS_TYPE":0,"CLASSIFICATION_TYPE":"U","NORAD_CAT_ID":58645,"ELEMENT_SET_NO":999,"REV_AT_EPOCH":12531,"BSTAR":0.00028246,"MEAN_MOTION_DOT":7.225e-5,"MEAN_MOTION_DDOT":0},{"OBJECT_NAME":"TIANMU-1 12","OBJECT_ID":"2023-205B","EPOCH":"2026-03-29T02:49:31.724256","MEAN_MOTION":15.26067618,"ECCENTRICITY":0.0005355,"INCLINATION":97.3513,"RA_OF_ASC_NODE":110.7282,"ARG_OF_PERICENTER":269.3422,"MEAN_ANOMALY":90.7203,"EPHEMERIS_TYPE":0,"CLASSIFICATION_TYPE":"U","NORAD_CAT_ID":58646,"ELEMENT_SET_NO":999,"REV_AT_EPOCH":12529,"BSTAR":0.00028938,"MEAN_MOTION_DOT":7.387e-5,"MEAN_MOTION_DDOT":0},{"OBJECT_NAME":"TIANMU-1 13","OBJECT_ID":"2023-205C","EPOCH":"2026-03-29T03:33:05.313024","MEAN_MOTION":15.26117957,"ECCENTRICITY":0.0005848,"INCLINATION":97.3541,"RA_OF_ASC_NODE":111.0056,"ARG_OF_PERICENTER":244.5905,"MEAN_ANOMALY":115.4729,"EPHEMERIS_TYPE":0,"CLASSIFICATION_TYPE":"U","NORAD_CAT_ID":58647,"ELEMENT_SET_NO":999,"REV_AT_EPOCH":12529,"BSTAR":0.00029156,"MEAN_MOTION_DOT":7.455e-5,"MEAN_MOTION_DDOT":0},{"OBJECT_NAME":"TIANMU-1 14","OBJECT_ID":"2023-205D","EPOCH":"2026-03-29T03:11:19.606848","MEAN_MOTION":15.26092937,"ECCENTRICITY":0.0006508,"INCLINATION":97.3476,"RA_OF_ASC_NODE":110.2419,"ARG_OF_PERICENTER":251.0047,"MEAN_ANOMALY":109.0486,"EPHEMERIS_TYPE":0,"CLASSIFICATION_TYPE":"U","NORAD_CAT_ID":58648,"ELEMENT_SET_NO":999,"REV_AT_EPOCH":12529,"BSTAR":0.00029853,"MEAN_MOTION_DOT":7.631e-5,"MEAN_MOTION_DDOT":0},{"OBJECT_NAME":"TIANMU-1 19","OBJECT_ID":"2023-208A","EPOCH":"2026-03-29T05:15:30.754944","MEAN_MOTION":15.30235459,"ECCENTRICITY":0.0004179,"INCLINATION":97.44,"RA_OF_ASC_NODE":204.2344,"ARG_OF_PERICENTER":226.1655,"MEAN_ANOMALY":133.924,"EPHEMERIS_TYPE":0,"CLASSIFICATION_TYPE":"U","NORAD_CAT_ID":58660,"ELEMENT_SET_NO":999,"REV_AT_EPOCH":12509,"BSTAR":0.00041387,"MEAN_MOTION_DOT":0.00012039,"MEAN_MOTION_DDOT":0},{"OBJECT_NAME":"TIANMU-1 20","OBJECT_ID":"2023-208B","EPOCH":"2026-03-29T04:31:08.845248","MEAN_MOTION":15.31423183,"ECCENTRICITY":0.0006103,"INCLINATION":97.4341,"RA_OF_ASC_NODE":204.7569,"ARG_OF_PERICENTER":241.0196,"MEAN_ANOMALY":119.0434,"EPHEMERIS_TYPE":0,"CLASSIFICATION_TYPE":"U","NORAD_CAT_ID":58661,"ELEMENT_SET_NO":999,"REV_AT_EPOCH":12517,"BSTAR":0.0004553,"MEAN_MOTION_DOT":0.00013756,"MEAN_MOTION_DDOT":0},{"OBJECT_NAME":"TIANMU-1 21","OBJECT_ID":"2023-208C","EPOCH":"2026-03-29T05:25:34.405824","MEAN_MOTION":15.33503208,"ECCENTRICITY":0.0006169,"INCLINATION":97.4396,"RA_OF_ASC_NODE":207.1447,"ARG_OF_PERICENTER":234.6381,"MEAN_ANOMALY":125.4285,"EPHEMERIS_TYPE":0,"CLASSIFICATION_TYPE":"U","NORAD_CAT_ID":58662,"ELEMENT_SET_NO":999,"REV_AT_EPOCH":12530,"BSTAR":0.00049358,"MEAN_MOTION_DOT":0.00015928,"MEAN_MOTION_DDOT":0},{"OBJECT_NAME":"TIANMU-1 22","OBJECT_ID":"2023-208D","EPOCH":"2026-03-29T05:48:12.519648","MEAN_MOTION":15.29825582,"ECCENTRICITY":0.000245,"INCLINATION":97.4396,"RA_OF_ASC_NODE":204.2552,"ARG_OF_PERICENTER":253.469,"MEAN_ANOMALY":106.6281,"EPHEMERIS_TYPE":0,"CLASSIFICATION_TYPE":"U","NORAD_CAT_ID":58663,"ELEMENT_SET_NO":999,"REV_AT_EPOCH":12510,"BSTAR":0.00045141,"MEAN_MOTION_DOT":0.00012972,"MEAN_MOTION_DDOT":0},{"OBJECT_NAME":"TIANMU-1 15","OBJECT_ID":"2024-004A","EPOCH":"2026-03-29T04:42:18.298368","MEAN_MOTION":15.26108217,"ECCENTRICITY":0.0005619,"INCLINATION":97.4678,"RA_OF_ASC_NODE":274.4129,"ARG_OF_PERICENTER":269.8789,"MEAN_ANOMALY":90.1805,"EPHEMERIS_TYPE":0,"CLASSIFICATION_TYPE":"U","NORAD_CAT_ID":58700,"ELEMENT_SET_NO":999,"REV_AT_EPOCH":12357,"BSTAR":0.00030235,"MEAN_MOTION_DOT":7.73e-5,"MEAN_MOTION_DDOT":0},{"OBJECT_NAME":"TIANMU-1 16","OBJECT_ID":"2024-004B","EPOCH":"2026-03-29T04:17:52.565568","MEAN_MOTION":15.26146013,"ECCENTRICITY":0.0004058,"INCLINATION":97.4621,"RA_OF_ASC_NODE":273.7053,"ARG_OF_PERICENTER":273.445,"MEAN_ANOMALY":86.6324,"EPHEMERIS_TYPE":0,"CLASSIFICATION_TYPE":"U","NORAD_CAT_ID":58701,"ELEMENT_SET_NO":999,"REV_AT_EPOCH":12357,"BSTAR":0.00032065,"MEAN_MOTION_DOT":8.211e-5,"MEAN_MOTION_DDOT":0},{"OBJECT_NAME":"TIANMU-1 17","OBJECT_ID":"2024-004C","EPOCH":"2026-03-29T03:51:47.405376","MEAN_MOTION":15.26179795,"ECCENTRICITY":0.0003269,"INCLINATION":97.4652,"RA_OF_ASC_NODE":274.15,"ARG_OF_PERICENTER":274.9038,"MEAN_ANOMALY":85.1827,"EPHEMERIS_TYPE":0,"CLASSIFICATION_TYPE":"U","NORAD_CAT_ID":58702,"ELEMENT_SET_NO":999,"REV_AT_EPOCH":12356,"BSTAR":0.00029505,"MEAN_MOTION_DOT":7.556e-5,"MEAN_MOTION_DDOT":0},{"OBJECT_NAME":"TIANMU-1 18","OBJECT_ID":"2024-004D","EPOCH":"2026-03-29T05:05:53.170944","MEAN_MOTION":15.26120269,"ECCENTRICITY":0.0002652,"INCLINATION":97.4669,"RA_OF_ASC_NODE":274.4159,"ARG_OF_PERICENTER":273.316,"MEAN_ANOMALY":86.7774,"EPHEMERIS_TYPE":0,"CLASSIFICATION_TYPE":"U","NORAD_CAT_ID":58703,"ELEMENT_SET_NO":999,"REV_AT_EPOCH":12357,"BSTAR":0.00029709,"MEAN_MOTION_DOT":7.595e-5,"MEAN_MOTION_DDOT":0},{"OBJECT_NAME":"INSAT-3DS","OBJECT_ID":"2024-033A","EPOCH":"2026-03-29T01:26:34.196928","MEAN_MOTION":1.00271576,"ECCENTRICITY":0.0002057,"INCLINATION":0.0175,"RA_OF_ASC_NODE":129.1326,"ARG_OF_PERICENTER":237.418,"MEAN_ANOMALY":283.6305,"EPHEMERIS_TYPE":0,"CLASSIFICATION_TYPE":"U","NORAD_CAT_ID":58990,"ELEMENT_SET_NO":999,"REV_AT_EPOCH":4626,"BSTAR":0,"MEAN_MOTION_DOT":-1.75e-6,"MEAN_MOTION_DDOT":0},{"OBJECT_NAME":"METEOR-M2 4","OBJECT_ID":"2024-039A","EPOCH":"2026-03-29T04:54:16.132032","MEAN_MOTION":14.22420252,"ECCENTRICITY":0.0007923,"INCLINATION":98.6939,"RA_OF_ASC_NODE":48.5415,"ARG_OF_PERICENTER":47.2965,"MEAN_ANOMALY":312.8879,"EPHEMERIS_TYPE":0,"CLASSIFICATION_TYPE":"U","NORAD_CAT_ID":59051,"ELEMENT_SET_NO":999,"REV_AT_EPOCH":10789,"BSTAR":3.7532e-5,"MEAN_MOTION_DOT":4.0e-7,"MEAN_MOTION_DDOT":0}]
